[
    {
        "CCSDS_OMM_VERS": "3.0",
        "COMMENT": "GENERATED VIA SPACE-TRACK.ORG API",
        "CREATION_DATE": "2025-04-12T22:09:39",
        "ORIGINATOR": "18 SPCS",
        "OBJECT_NAME": "GALILEO 24 (2C0)",
        "OBJECT_ID": "2018-060D",
        "CENTER_NAME": "EARTH",
        "REF_FRAME": "TEME",
        "TIME_SYSTEM": "UTC",
        "MEAN_ELEMENT_THEORY": "SGP4",
        "EPOCH": "2025-04-11T23:59:39.839424",
        "MEAN_MOTION": "1.70475846",
        "ECCENTRICITY": "0.00042240",
        "INCLINATION": "57.2812",
        "RA_OF_ASC_NODE": "353.4217",
        "ARG_OF_PERICENTER": "315.8988",
        "MEAN_ANOMALY": "44.1112",
        "EPHEMERIS_TYPE": "0",
        "CLASSIFICATION_TYPE": "U",
        "NORAD_CAT_ID": "43567",
        "ELEMENT_SET_NO": "999",
        "REV_AT_EPOCH": "4182",
        "BSTAR": "0.00000000000000",
        "MEAN_MOTION_DOT": "-0.00000097",
        "MEAN_MOTION_DDOT": "0.0000000000000",
        "SEMIMAJOR_AXIS": "29600.106",
        "PERIOD": "844.694",
        "APOAPSIS": "23234.474",
        "PERIAPSIS": "23209.468",
        "OBJECT_TYPE": "PAYLOAD",
        "RCS_SIZE": "LARGE",
        "COUNTRY_CODE": "ESA",
        "LAUNCH_DATE": "2018-07-25",
        "SITE": "FRGUI",
        "DECAY_DATE": null,
        "FILE": "4699941",
        "GP_ID": "285446791",
        "TLE_LINE0": "0 GALILEO 24 (2C0)",
        "TLE_LINE1": "1 43567U 18060D   25101.99976666 -.00000097  00000-0  00000-0 0  9994",
        "TLE_LINE2": "2 43567  57.2812 353.4217 0004224 315.8988  44.1112  1.70475846 41821"
    }
]